{
  "norad_id": 58056,
  "name": "STARLINK-30553",
  "history": [
    {
      "epoch": "2026-03-28T20:41:03.948000Z",
      "apogee_km": 483.9087791579368,
      "perigee_km": 482.1988331852217,
      "latitude_deg": -1.0992528864336482e-05,
      "longitude_deg": 142.0997230113636,
      "height_km": 482.77169036665515,
      "semi_major_axis_km": 6861.1908061715785,
      "eccentricity": 0.00012461,
      "inclination_deg": 43.0019,
      "raan_deg": 278.6424,
      "arg_perigee_deg": 273.9508,
      "mean_anomaly_deg": 86.1201,
      "mean_motion_rev_day": 15.27578427
    }
  ]
}