{"fetched_at":"2026-03-29T16:36:15Z","count":15609,"tles":[{"name":"STARLINK-30553","line1":"1 58056U 23158F   26087.86185125  .00001319  00000+0  57441-4 0  9990","line2":"2 58056  43.0019 278.6424 0001246 273.9508  86.1201 15.27578427136504","category":"Starlink"}]}